[{"OBJECT_NAME":"STARLINK-35515","OBJECT_ID":"2025-263D","EPOCH":"2026-03-09T02:50:29.107680","MEAN_MOTION":15.27601008,"ECCENTRICITY":0.00017584,"INCLINATION":43.0044,"RA_OF_ASC_NODE":353.7399,"ARG_OF_PERICENTER":261.7226,"MEAN_ANOMALY":98.3426,"EPHEMERIS_TYPE":0,"CLASSIFICATION_TYPE":"U","NORAD_CAT_ID":66488,"ELEMENT_SET_NO":999,"REV_AT_EPOCH":1881,"BSTAR":0.0015562028,"MEAN_MOTION_DOT":0.00042838,"MEAN_MOTION_DDOT":0},{"OBJECT_NAME":"KSLV-II R\/B","OBJECT_ID":"2023-072H","EPOCH":"2026-03-09T20:13:26.441760","MEAN_MOTION":15.33109439,"ECCENTRICITY":0.00241884,"INCLINATION":97.4991,"RA_OF_ASC_NODE":274.152,"ARG_OF_PERICENTER":318.2938,"MEAN_ANOMALY":41.646,"EPHEMERIS_TYPE":0,"CLASSIFICATION_TYPE":"U","NORAD_CAT_ID":56750,"ELEMENT_SET_NO":999,"REV_AT_EPOCH":15516,"BSTAR":0.00028309532,"MEAN_MOTION_DOT":9.057e-5,"MEAN_MOTION_DDOT":0}]
